NORAD_CAT_ID,OBJECT_NAME,OBJECT_TYPE,EPOCH,MEAN_MOTION,ECCENTRICITY,INCLINATION,RA_OF_ASC_NODE,ARG_OF_PERICENTER,MEAN_ANOMALY,BSTAR,MEAN_MOTION_DOT,MEAN_MOTION_DDOT,TLE_LINE0,TLE_LINE1,TLE_LINE2,SEMIMAJOR_AXIS,PERIOD,APOGEE,PERIGEE,DECAYED
54077.0,STARLINK-5171,PAYLOAD,2023-06-16 14:35:22,15.08850097,0.0001084,53.2168,119.8732,91.8731,268.2385,8.1788e-05,1.014e-05,0.0,0 STARLINK-5171,1 54077U 22136AC  23167.60789674  .00001014  00000-0  81788-4 0  9995,2 54077  53.2168 119.8732 0001084  91.8731 268.2385 15.08850097 36605,6917.85,95.437,540.464,538.965,0.0
54077.0,STARLINK-5171,PAYLOAD,2023-06-16 22:32:18,15.08837289,0.000119,53.2168,118.3857,88.432,271.6809,4.237e-05,3.86e-06,0.0,0 STARLINK-5171,1 54077U 22136AC  23167.93910597  .00000386  00000-0  42370-4 0  9996,2 54077  53.2168 118.3857 0001190  88.4320 271.6809 15.08837289 37137,6917.889,95.438,540.577,538.93,0.0
54077.0,STARLINK-5171,PAYLOAD,2023-06-17 03:18:27,15.08841511,0.0001102,53.217,117.494,97.6446,262.4671,7.6223e-05,9.26e-06,0.0,0 STARLINK-5171,1 54077U 22136AC  23168.13782178  .00000926  00000-0  76223-4 0  9995,2 54077  53.2170 117.4940 0001102  97.6446 262.4671 15.08841511 36684,6917.876,95.437,540.503,538.978,0.0
54077.0,STARLINK-5171,PAYLOAD,2023-06-17 22:23:06,15.08837581,0.0001269,53.2168,113.9246,93.5332,266.5805,-0.00011307,-2.087e-05,0.0,0 STARLINK-5171,1 54077U 22136AC  23168.93271259 -.00002087  00000-0 -11307-3 0  9999,2 54077  53.2168 113.9246 0001269  93.5332 266.5805 15.08837581 37287,6917.888,95.438,540.631,538.875,0.0
54077.0,STARLINK-5171,PAYLOAD,2023-06-18 12:41:34,15.08837004,0.0001179,53.217,111.2495,100.1946,259.9179,-0.00010718,-1.993e-05,0.0,0 STARLINK-5171,1 54077U 22136AC  23169.52887326 -.00001993  00000-0 -10718-3 0  9993,2 54077  53.2170 111.2495 0001179 100.1946 259.9179 15.08837004 36899,6917.89,95.438,540.57,538.939,0.0
54077.0,STARLINK-5171,PAYLOAD,2023-06-18 19:03:07,15.08832554,0.0001168,53.2168,110.0603,106.3989,253.7132,-4.2742e-05,-9.68e-06,0.0,0 STARLINK-5171,1 54077U 22136AC  23169.79383481 -.00000968  00000-0 -42742-4 0  9999,2 54077  53.2168 110.0603 0001168 106.3989 253.7132 15.08832554 36938,6917.903,95.438,540.576,538.96,0.0
54077.0,STARLINK-5171,PAYLOAD,2023-06-19 04:35:25,15.0884055,0.0001164,53.2168,108.2765,105.0181,255.094,5.3492e-06,-2.03e-06,0.0,0 STARLINK-5171,1 54077U 22136AC  23170.19126932 -.00000203  00000-0  53492-5 0  9997,2 54077  53.2168 108.2765 0001164 105.0181 255.0940 15.08840550 37479,6917.879,95.438,540.549,538.938,0.0
54077.0,STARLINK-5171,PAYLOAD,2023-06-20 04:26:13,15.08831326,0.0001153,53.2175,103.8154,101.2072,258.9049,8.0379e-05,9.91e-06,0.0,0 STARLINK-5171,1 54077U 22136AC  23171.18487738  .00000991  00000-0  80379-4 0  9997,2 54077  53.2175 103.8154 0001153 101.2072 258.9049 15.08831326 37625,6917.907,95.438,540.57,538.974,0.0
54077.0,STARLINK-5171,PAYLOAD,2023-06-20 06:01:36,15.08832172,0.0001166,53.2175,103.5179,100.598,259.5143,8.5838e-05,1.078e-05,0.0,0 STARLINK-5171,1 54077U 22136AC  23171.25111697  .00001078  00000-0  85838-4 0  9995,2 54077  53.2175 103.5179 0001166 100.5980 259.5143 15.08832172 37153,6917.904,95.438,540.576,538.963,0.0
54077.0,STARLINK-5171,PAYLOAD,2023-06-20 12:23:08,15.08835488,0.0001167,53.2178,102.3289,99.0435,261.069,9.2771e-05,1.189e-05,0.0,0 STARLINK-5171,1 54077U 22136AC  23171.51607579  .00001189  00000-0  92771-4 0  9990,2 54077  53.2178 102.3289 0001167  99.0435 261.0690 15.08835488 37195,6917.894,95.438,540.566,538.952,0.0
54077.0,STARLINK-5171,PAYLOAD,2023-06-21 02:41:37,15.08841355,0.0001103,53.2172,99.653,96.6673,263.4445,7.438e-05,8.96e-06,0.0,0 STARLINK-5171,1 54077U 22136AC  23172.11223383  .00000896  00000-0  74380-4 0  9994,2 54077  53.2172  99.6530 0001103  96.6673 263.4445 15.08841355 37760,6917.876,95.437,540.504,538.978,0.0
54077.0,STARLINK-5171,PAYLOAD,2023-06-21 12:13:56,15.08836114,0.0001289,53.2179,97.8689,89.7741,270.3399,1.0773e-05,-1.16e-06,0.0,0 STARLINK-5171,1 54077U 22136AC  23172.50967981 -.00000116  00000-0  10773-4 0  9998,2 54077  53.2179  97.8689 0001289  89.7741 270.3399 15.08836114 37825,6917.892,95.438,540.649,538.866,0.0
54077.0,STARLINK-5171,PAYLOAD,2023-06-23 00:47:48,15.08841397,0.0001191,53.217,91.0281,88.5895,271.5234,4.7146e-05,4.63e-06,0.0,0 STARLINK-5171,1 54077U 22136AC  23174.03319723  .00000463  00000-0  47146-4 0  9991,2 54077  53.2170  91.0281 0001191  88.5895 271.5234 15.08841397 38055,6917.876,95.437,540.565,538.917,0.0
54077.0,STARLINK-5171,PAYLOAD,2023-06-23 03:58:34,15.08849123,0.0001183,53.2176,90.4319,97.1785,262.9342,4.0754e-05,3.61e-06,0.0,0 STARLINK-5171,1 54077U 22136AC  23174.16567188  .00000361  00000-0  40754-4 0  9990,2 54077  53.2176  90.4319 0001183  97.1785 262.9342 15.08849123 38072,6917.853,95.437,540.536,538.899,0.0
54077.0,STARLINK-5171,PAYLOAD,2023-06-25 00:29:22,15.08844205,0.0001118,53.2178,82.1077,99.6523,260.4595,-2.4345e-05,-6.75e-06,0.0,0 STARLINK-5171,1 54077U 22136AC  23176.02039564 -.00000675  00000-0 -24345-4 0  9997,2 54077  53.2178  82.1077 0001118  99.6523 260.4595 15.08844205 38358,6917.868,95.437,540.506,538.959,0.0
54077.0,STARLINK-5171,PAYLOAD,2023-06-26 01:55:32,15.08846292,9.79e-05,53.2171,77.3515,86.995,273.1154,-1.4232e-05,-5.14e-06,0.0,0 STARLINK-5171,1 54077U 22136AC  23177.08023375 -.00000514  00000-0 -14232-4 0  9993,2 54077  53.2171  77.3515 0000979  86.9950 273.1154 15.08846292 38519,6917.861,95.437,540.403,539.049,0.0
54077.0,STARLINK-5171,PAYLOAD,2023-06-27 03:21:42,15.08842039,7.46e-05,53.2171,72.593,93.0433,267.0644,2.1429e-05,5.3e-07,0.0,0 STARLINK-5171,1 54077U 22136AC  23178.14007854  .00000053  00000-0  21429-4 0  9997,2 54077  53.2171  72.5930 0000746  93.0433 267.0644 15.08842039 38672,6917.874,95.437,540.255,539.223,0.0
54077.0,STARLINK-5171,PAYLOAD,2023-06-27 20:50:57,15.08833675,8.68e-05,53.218,69.3226,87.6667,272.4424,2.7199e-05,1.45e-06,0.0,0 STARLINK-5171,1 54077U 22136AC  23178.86872663  .00000145  00000-0  27199-4 0  9996,2 54077  53.2180  69.3226 0000868  87.6667 272.4424 15.08833675 38781,6917.9,95.438,540.365,539.164,0.0
54077.0,STARLINK-5171,PAYLOAD,2023-06-28 01:37:06,15.08840173,8.84e-05,53.2182,68.4314,88.2212,271.8881,0.00010364,1.362e-05,0.0,0 STARLINK-5171,1 54077U 22136AC  23179.06744102  .00001362  00000-0  10364-3 0  9992,2 54077  53.2182  68.4314 0000884  88.2212 271.8881 15.08840173 38817,6917.88,95.438,540.356,539.133,0.0
54077.0,STARLINK-5171,PAYLOAD,2023-06-29 15:46:22,15.08836908,0.0001128,53.2178,61.2949,76.8574,283.2544,4.8217e-05,4.8e-06,0.0,0 STARLINK-5171,1 54077U 22136AC  23180.65720735  .00000480  00000-0  48217-4 0  9994,2 54077  53.2178  61.2949 0001128  76.8574 283.2544 15.08836908 39054,6917.89,95.438,540.535,538.975,0.0
54077.0,STARLINK-5171,PAYLOAD,2023-06-30 21:58:42,15.08846019,9.09e-05,53.2173,55.6446,76.5376,283.5717,-8.4554e-05,-1.633e-05,0.0,0 STARLINK-5171,1 54077U 22136AC  23181.91576835 -.00001633  00000-0 -84554-4 0  9991,2 54077  53.2173  55.6446 0000909  76.5376 283.5717 15.08846019 39241,6917.862,95.437,540.356,539.098,0.0
54077.0,STARLINK-5171,PAYLOAD,2023-07-02 01:00:15,15.08843306,9.77e-05,53.2181,50.5882,84.8228,275.2876,0.00014237,1.979e-05,0.0,0 STARLINK-5171,1 54077U 22136AC  23183.04184423  .00001979  00000-0  14237-3 0  9996,2 54077  53.2181  50.5882 0000977  84.8228 275.2876 15.08843306 39410,6917.87,95.437,540.411,539.059,0.0
54077.0,STARLINK-5171,PAYLOAD,2023-07-02 23:15:39,15.0884263,0.0001001,53.2182,46.4244,89.4519,270.6588,8.0683e-05,9.97e-06,0.0,0 STARLINK-5171,1 54077U 22136AC  23183.96920681  .00000997  00000-0  80683-4 0  9999,2 54077  53.2182  46.4244 0001001  89.4519 270.6588 15.08842630 39553,6917.872,95.437,540.43,539.045,0.0
54077.0,STARLINK-5171,PAYLOAD,2023-07-03 15:09:31,15.08833567,9.75e-05,53.2179,43.4504,90.8138,269.2965,0.00010757,1.424e-05,0.0,0 STARLINK-5171,1 54077U 22136AC  23184.63161112  .00001424  00000-0  10757-3 0  9990,2 54077  53.2179  43.4504 0000975  90.8138 269.2965 15.08833567 39650,6917.9,95.438,540.44,539.091,0.0
54077.0,STARLINK-5171,PAYLOAD,2023-07-03 23:06:26,15.08842777,9.29e-05,53.218,41.9648,92.9767,267.1331,3.2072e-05,2.23e-06,0.0,0 STARLINK-5171,1 54077U 22136AC  23184.96280715  .00000223  00000-0  32072-4 0  9998,2 54077  53.2180  41.9648 0000929  92.9767 267.1331 15.08842777 39707,6917.872,95.437,540.38,539.094,0.0
54077.0,STARLINK-5171,PAYLOAD,2023-07-04 15:00:18,15.0883851,7.55e-05,53.2176,38.9907,111.0314,249.0759,-4.4781e-06,-3.59e-06,0.0,0 STARLINK-5171,1 54077U 22136AC  23185.62521100 -.00000359  00000-0 -44781-5 0  9991,2 54077  53.2176  38.9907 0000755 111.0314 249.0759 15.08838510 39808,6917.885,95.438,540.272,539.228,0.0
54077.0,STARLINK-5171,PAYLOAD,2023-07-04 22:57:13,15.08846615,8.94e-05,53.2176,37.5048,91.6007,268.5088,6.3251e-05,7.19e-06,0.0,0 STARLINK-5171,1 54077U 22136AC  23185.95640436  .00000719  00000-0  63251-4 0  9991,2 54077  53.2176  37.5048 0000894  91.6007 268.5088 15.08846615 39856,6917.86,95.437,540.344,539.107,0.0
54077.0,STARLINK-5171,PAYLOAD,2023-07-05 21:12:38,15.0883164,9.33e-05,53.2177,33.3419,89.2935,270.8164,5.1804e-05,5.37e-06,0.0,0 STARLINK-5171,1 54077U 22136AC  23186.88377705  .00000537  00000-0  51804-4 0  9999,2 54077  53.2177  33.3419 0000933  89.2935 270.8164 15.08831640 39998,6917.906,95.438,540.416,539.126,0.0
54077.0,STARLINK-5171,PAYLOAD,2023-07-06 06:44:56,15.08840401,9.19e-05,53.2178,31.5577,90.4909,269.6189,3.7111e-05,3.03e-06,0.0,0 STARLINK-5171,1 54077U 22136AC  23187.28121279  .00000303  00000-0  37111-4 0  9993,2 54077  53.2178  31.5577 0000919  90.4909 269.6189 15.08840401 40050,6917.879,95.438,540.38,539.108,0.0
54077.0,STARLINK-5171,PAYLOAD,2023-07-06 22:38:47,15.08849682,0.0001093,53.2185,28.5826,103.0523,257.0592,0.00011622,1.563e-05,0.0,0 STARLINK-5171,1 54077U 22136AC  23187.94360516  .00001563  00000-0  11622-3 0  9992,2 54077  53.2185  28.5826 0001093 103.0523 257.0592 15.08849682 40158,6917.851,95.437,540.472,538.96,0.0
